GLOBALSTAR M045         
1 25676U 99019A   25055.59929163 -.00000018  00000+0  66983-3 0  9999
2 25676  51.9955 266.1714 0001001  56.8492 319.3454 12.27057931179570
GLOBALSTAR M019         
1 25677U 99019B   25055.64591368 -.00000183  00000+0 -97174-3 0  9998
2 25677  51.9913  28.4798 0001389  90.6147  79.7920 12.13874753171478
GLOBALSTAR M044         
1 25678U 99019C   25055.50760322 -.00000092  00000+0 -12142-3 0  9993
2 25678  51.9995 326.1324 0006103 178.2600 352.8192 11.90246553157901
GLOBALSTAR M042         
1 25679U 99019D   25055.62751212 -.00000047  00000+0  42533-3 0  9991
2 25679  52.0043   8.7116 0003220  66.6995 104.0678 12.22078888171490
GLOBALSTAR M025         
1 25770U 99031A   25055.51214292 -.00000060  00000+0  24218-3 0  9992
2 25770  51.9822  60.2886 0001289 316.8249 213.0223 11.22559661469058
GLOBALSTAR M049         
1 25771U 99031B   25055.45734209 -.00000054  00000+0  39143-3 0  9997
2 25771  51.9865  89.5150 0003496 180.2927 179.7868 11.12114906104880
GLOBALSTAR M047         
1 25772U 99031C   25055.55710188 -.00000055  00000+0  40234-3 0  9993
2 25772  51.9819  97.0204 0016424  71.2059 289.0527 11.31925997458356
GLOBALSTAR M052         
1 25773U 99031D   25055.64054954 -.00000085  00000+0 -65054-3 0  9997
2 25773  51.9842 199.3590 0002032  10.9642  74.4825 11.15058385465956
